line1,line2,validFromUtcTime
1 00000U 00000E   26001.00000000  .00000000  00000-0  27772-4 0    01,2 00000  88.8959 135.3350 0010061 270.0705 292.3280 13.55305706    09,2026-01-01T00:00:00Z
1 00000U 00000E   26002.00000000  .00000000  00000-0  27772-4 0    02,2 00000  88.8959 135.2227 0010061 267.1604 131.4270 13.55305745    01,2026-01-02T00:00:00Z
